{
  "generatedAtUtc": "2026-03-18T01:18:46.528Z",
  "provider": "starlink",
  "sourceRootHint": "../tle_data",
  "sourceFile": "starlink/json/starlink_20260316.json",
  "sourceRecordCount": 9839,
  "sampledRecordCount": 400,
  "replayWindowStartUtc": "2026-03-16T21:04:17.212Z",
  "replayWindowDurationSec": 6000,
  "bootstrapStartOffsetSec": 3600,
  "observer": {
    "latDeg": 40,
    "lonDeg": 116,
    "altKm": 0.05
  },
  "selectionPolicy": {
    "mode": "constellation-even",
    "serviceMinElevationDeg": 25,
    "analysisWindowSec": 6000,
    "rankingPolicyId": "even-norad-order",
    "note": "Current fixture was generated with constellation-wide even sampling. Future fixtures should use observer-local-pass mode (RTLP D2)."
  },
  "replayModeSupport": {
    "researchDefault": true,
    "demoLoopSupported": true
  },
  "records": [
    {
      "objectName": "STARLINK-5340",
      "objectId": "2023-065D",
      "noradId": 56506,
      "epochUtc": "2026-03-16T20:00:01.999008Z",
      "meanMotionRevPerDay": 15.06458118,
      "eccentricity": 0.0002714,
      "inclinationDeg": 43.0001,
      "raanDeg": 158.867,
      "argPerigeeDeg": 261.7122,
      "meanAnomalyDeg": 155.0588,
      "bstar": 0.0015688,
      "meanMotionDot": 0.00023408,
      "meanMotionDdot": 0,
      "elementSetNo": 999,
      "revAtEpoch": 541
    },
    {
      "objectName": "STARLINK-5339",
      "objectId": "2023-065H",
      "noradId": 56510,
      "epochUtc": "2026-03-16T20:00:01.999008Z",
      "meanMotionRevPerDay": 15.16804349,
      "eccentricity": 0.0001961,
      "inclinationDeg": 42.9999,
      "raanDeg": 170.9846,
      "argPerigeeDeg": 278.2894,
      "meanAnomalyDeg": 157.2923,
      "bstar": 0.0024133,
      "meanMotionDot": 0.00048391,
      "meanMotionDdot": 0,
      "elementSetNo": 999,
      "revAtEpoch": 566
    },
    {
      "objectName": "STARLINK-5351",
      "objectId": "2023-065J",
      "noradId": 56511,
      "epochUtc": "2026-03-16T20:00:01.999008Z",
      "meanMotionRevPerDay": 15.14456739,
      "eccentricity": 0.0002384,
      "inclinationDeg": 43.0008,
      "raanDeg": 171.1194,
      "argPerigeeDeg": 272.7315,
      "meanAnomalyDeg": 103.8404,
      "bstar": 0.0022936,
      "meanMotionDot": 0.00042968,
      "meanMotionDdot": 0,
      "elementSetNo": 999,
      "revAtEpoch": 576
    },
    {
      "objectName": "STARLINK-5349",
      "objectId": "2023-065K",
      "noradId": 56512,
      "epochUtc": "2026-03-16T20:00:01.999008Z",
      "meanMotionRevPerDay": 15.16493054,
      "eccentricity": 0.0002059,
      "inclinationDeg": 43.0001,
      "raanDeg": 171.0088,
      "argPerigeeDeg": 274.4573,
      "meanAnomalyDeg": 146.0525,
      "bstar": 0.0024269,
      "meanMotionDot": 0.0004823,
      "meanMotionDdot": 0,
      "elementSetNo": 999,
      "revAtEpoch": 571
    },
    {
      "objectName": "STARLINK-5329",
      "objectId": "2023-065L",
      "noradId": 56513,
      "epochUtc": "2026-03-16T20:00:01.999008Z",
      "meanMotionRevPerDay": 15.14591048,
      "eccentricity": 0.0002286,
      "inclinationDeg": 43.0004,
      "raanDeg": 171.0809,
      "argPerigeeDeg": 273.9714,
      "meanAnomalyDeg": 119.5001,
      "bstar": 0.0022995,
      "meanMotionDot": 0.00043246,
      "meanMotionDdot": 0,
      "elementSetNo": 999,
      "revAtEpoch": 581
    },
    {
      "objectName": "STARLINK-5348",
      "objectId": "2023-065N",
      "noradId": 56515,
      "epochUtc": "2026-03-16T20:00:01.999008Z",
      "meanMotionRevPerDay": 15.13016423,
      "eccentricity": 0.0002564,
      "inclinationDeg": 43.0013,
      "raanDeg": 171.1798,
      "argPerigeeDeg": 267.2228,
      "meanAnomalyDeg": 83.9918,
      "bstar": 0.0021362,
      "meanMotionDot": 0.00038384,
      "meanMotionDdot": 0,
      "elementSetNo": 999,
      "revAtEpoch": 576
    },
    {
      "objectName": "STARLINK-5346",
      "objectId": "2023-065R",
      "noradId": 56518,
      "epochUtc": "2026-03-16T20:00:01.999008Z",
      "meanMotionRevPerDay": 15.13255714,
      "eccentricity": 0.0002433,
      "inclinationDeg": 43.0005,
      "raanDeg": 171.1005,
      "argPerigeeDeg": 280.3536,
      "meanAnomalyDeg": 104.1457,
      "bstar": 0.0023024,
      "meanMotionDot": 0.00041687,
      "meanMotionDdot": 0,
      "elementSetNo": 999,
      "revAtEpoch": 576
    },
    {
      "objectName": "STARLINK-6313",
      "objectId": "2023-065S",
      "noradId": 56519,
      "epochUtc": "2026-03-16T20:00:01.999008Z",
      "meanMotionRevPerDay": 15.10895306,
      "eccentricity": 0.000247,
      "inclinationDeg": 43.0015,
      "raanDeg": 171.1817,
      "argPerigeeDeg": 266.3005,
      "meanAnomalyDeg": 82.0577,
      "bstar": 0.0021999,
      "meanMotionDot": 0.00037252,
      "meanMotionDdot": 0,
      "elementSetNo": 999,
      "revAtEpoch": 581
    },
    {
      "objectName": "STARLINK-6333",
      "objectId": "2023-065U",
      "noradId": 56521,
      "epochUtc": "2026-03-16T16:41:51.889344Z",
      "meanMotionRevPerDay": 15.0249901,
      "eccentricity": 0.0000734,
      "inclinationDeg": 43.0051,
      "raanDeg": 171.8315,
      "argPerigeeDeg": 286.8506,
      "meanAnomalyDeg": 73.2255,
      "bstar": 0.00078448,
      "meanMotionDot": 0.00010399,
      "meanMotionDdot": 0,
      "elementSetNo": 999,
      "revAtEpoch": 15768
    },
    {
      "objectName": "STARLINK-6327",
      "objectId": "2023-065V",
      "noradId": 56522,
      "epochUtc": "2026-03-16T20:00:01.999008Z",
      "meanMotionRevPerDay": 15.12768116,
      "eccentricity": 0.0002329,
      "inclinationDeg": 43.0005,
      "raanDeg": 171.0637,
      "argPerigeeDeg": 274.4698,
      "meanAnomalyDeg": 124.1538,
      "bstar": 0.0023041,
      "meanMotionDot": 0.00041147,
      "meanMotionDdot": 0,
      "elementSetNo": 999,
      "revAtEpoch": 581
    },
    {
      "objectName": "STARLINK-6328",
      "objectId": "2023-065W",
      "noradId": 56523,
      "epochUtc": "2026-03-16T20:00:01.999008Z",
      "meanMotionRevPerDay": 15.09578435,
      "eccentricity": 0.0002245,
      "inclinationDeg": 43.0009,
      "raanDeg": 170.9912,
      "argPerigeeDeg": 302.4893,
      "meanAnomalyDeg": 125.7817,
      "bstar": 0.0024695,
      "meanMotionDot": 0.00040363,
      "meanMotionDdot": 0,
      "elementSetNo": 999,
      "revAtEpoch": 582
    },
    {
      "objectName": "STARLINK-6323",
      "objectId": "2023-065X",
      "noradId": 56524,
      "epochUtc": "2026-03-16T15:14:31.356960Z",
      "meanMotionRevPerDay": 15.07311066,
      "eccentricity": 0.0000773,
      "inclinationDeg": 43.0013,
      "raanDeg": 172.2473,
      "argPerigeeDeg": 284.3037,
      "meanAnomalyDeg": 75.7721,
      "bstar": 0.010182,
      "meanMotionDot": 0.00159735,
      "meanMotionDdot": 0,
      "elementSetNo": 999,
      "revAtEpoch": 15767
    },
    {
      "objectName": "STARLINK-6307",
      "objectId": "2023-065AC",
      "noradId": 56529,
      "epochUtc": "2026-03-16T20:00:01.999008Z",
      "meanMotionRevPerDay": 15.06496943,
      "eccentricity": 0.000275,
      "inclinationDeg": 43.0009,
      "raanDeg": 158.7561,
      "argPerigeeDeg": 285.8669,
      "meanAnomalyDeg": 174.981,
      "bstar": 0.001619,
      "meanMotionDot": 0.00024192,
      "meanMotionDdot": 0,
      "elementSetNo": 999,
      "revAtEpoch": 571
    },
    {
      "objectName": "STARLINK-6318",
      "objectId": "2023-065AD",
      "noradId": 56530,
      "epochUtc": "2026-03-16T20:00:01.999008Z",
      "meanMotionRevPerDay": 15.11909655,
      "eccentricity": 0.0001429,
      "inclinationDeg": 43.0002,
      "raanDeg": 145.3214,
      "argPerigeeDeg": 289.8876,
      "meanAnomalyDeg": 346.4863,
      "bstar": 0.00037916,
      "meanMotionDot": 0.00006391,
      "meanMotionDdot": 0,
      "elementSetNo": 999,
      "revAtEpoch": 571
    },
    {
      "objectName": "STARLINK-6280",
      "objectId": "2023-065AE",
      "noradId": 56531,
      "epochUtc": "2026-03-16T20:00:01.999008Z",
      "meanMotionRevPerDay": 15.19471315,
      "eccentricity": 0.0001162,
      "inclinationDeg": 43.0007,
      "raanDeg": 157.6865,
      "argPerigeeDeg": 299.5405,
      "meanAnomalyDeg": 253.7035,
      "bstar": 0.0012466,
      "meanMotionDot": 0.00026805,
      "meanMotionDdot": 0,
      "elementSetNo": 999,
      "revAtEpoch": 571
    },
    {
      "objectName": "STARLINK-6319",
      "objectId": "2023-065AF",
      "noradId": 56532,
      "epochUtc": "2026-03-16T20:00:01.999008Z",
      "meanMotionRevPerDay": 15.21077053,
      "eccentricity": 0.0000817,
      "inclinationDeg": 43.0005,
      "raanDeg": 157.7032,
      "argPerigeeDeg": 287.8725,
      "meanAnomalyDeg": 261.3736,
      "bstar": 0.0025899,
      "meanMotionDot": 0.00058899,
      "meanMotionDdot": 0,
      "elementSetNo": 999,
      "revAtEpoch": 576
    },
    {
      "objectName": "STARLINK-6042",
      "objectId": "2023-078AT",
      "noradId": 56808,
      "epochUtc": "2026-03-16T21:04:13.152864Z",
      "meanMotionRevPerDay": 14.98327153,
      "eccentricity": 0.0002291,
      "inclinationDeg": 69.998,
      "raanDeg": 256.412,
      "argPerigeeDeg": 272.8575,
      "meanAnomalyDeg": 87.2322,
      "bstar": 0.00010462,
      "meanMotionDot": 0.00001155,
      "meanMotionDdot": 0,
      "elementSetNo": 999,
      "revAtEpoch": 15549
    },
    {
      "objectName": "STARLINK-6162",
      "objectId": "2023-090AG",
      "noradId": 57131,
      "epochUtc": "2026-03-16T20:00:01.999008Z",
      "meanMotionRevPerDay": 15.20141988,
      "eccentricity": 0.0002172,
      "inclinationDeg": 43.0001,
      "raanDeg": 222.3221,
      "argPerigeeDeg": 276.2542,
      "meanAnomalyDeg": 89.5159,
      "bstar": 0.0057692,
      "meanMotionDot": 0.00129204,
      "meanMotionDdot": 0,
      "elementSetNo": 999,
      "revAtEpoch": 581
    }
  ]
}
